[{"OBJECT_NAME":"STARLINK-3107","OBJECT_ID":"2021-082AT","EPOCH":"2026-03-09T21:59:27.140640","MEAN_MOTION":15.10504087,"ECCENTRICITY":0.00073375,"INCLINATION":69.9932,"RA_OF_ASC_NODE":287.3824,"ARG_OF_PERICENTER":250.2407,"MEAN_ANOMALY":109.7967,"EPHEMERIS_TYPE":0,"CLASSIFICATION_TYPE":"U","NORAD_CAT_ID":49171,"ELEMENT_SET_NO":999,"REV_AT_EPOCH":24733,"BSTAR":0.001517345,"MEAN_MOTION_DOT":0.00025048,"MEAN_MOTION_DDOT":0},{"OBJECT_NAME":"STARLINK-3143","OBJECT_ID":"2021-115Q","EPOCH":"2026-03-09T11:59:14.120736","MEAN_MOTION":15.08834226,"ECCENTRICITY":0.00014039,"INCLINATION":53.2163,"RA_OF_ASC_NODE":150.1795,"ARG_OF_PERICENTER":77.1167,"MEAN_ANOMALY":282.9982,"EPHEMERIS_TYPE":0,"CLASSIFICATION_TYPE":"U","NORAD_CAT_ID":49738,"ELEMENT_SET_NO":999,"REV_AT_EPOCH":23550,"BSTAR":6.7137927e-5,"MEAN_MOTION_DOT":7.81e-6,"MEAN_MOTION_DDOT":0}]
